OBJECT_NAME,OBJECT_ID,EPOCH,MEAN_MOTION,ECCENTRICITY,INCLINATION,RA_OF_ASC_NODE,ARG_OF_PERICENTER,MEAN_ANOMALY,EPHEMERIS_TYPE,CLASSIFICATION_TYPE,NORAD_CAT_ID,ELEMENT_SET_NO,REV_AT_EPOCH,BSTAR,MEAN_MOTION_DOT,MEAN_MOTION_DDOT
STARLINK-35390,2025-218F,2026-07-13T12:12:20.587104,15.05661927,.0002296,97.2836,54.9854,77.6648,282.4836,0,U,65796,999,4390,.20361E-3,.2884E-4,0
STARLINK-35412,2025-218G,2026-07-13T11:48:25.045920,15.05663298,.0001998,97.2860,55.0089,77.5609,282.5843,0,U,65797,999,4390,.16615E-3,.2343E-4,0
STARLINK-35414,2025-218H,2026-07-12T14:16:27.994080,15.05657267,.0003097,97.2841,54.0829,87.1852,272.9730,0,U,65798,999,4376,.2146E-3,.3042E-4,0
STARLINK-35357,2025-218J,2026-07-12T23:58:38.168832,15.05674563,.00020929,97.2864,54.4551,80.3422,279.8042,0,U,65799,999,4382,.29084429E-3,.4145E-4,0
STARLINK-35300,2025-218K,2026-07-13T13:08:09.592800,15.05662946,.0002767,97.2854,54.9320,87.9635,272.1909,0,U,65800,999,4390,.22523E-3,.3196E-4,0
STARLINK-35296,2025-218L,2026-07-13T11:56:23.407296,15.05666094,.000203,97.2856,55.0010,87.6324,272.5136,0,U,65801,999,4390,.75956E-4,.104E-4,0
STARLINK-34919,2025-218M,2026-07-13T12:20:19.842720,15.05658021,.0002556,97.2849,54.9795,78.7418,281.4097,0,U,65802,999,4390,.20555E-3,.2911E-4,0
STARLINK-35286,2025-218N,2026-07-13T13:04:10.128288,15.05667333,.0003637,97.2851,54.9378,93.5723,266.5921,0,U,65803,999,4390,.62757E-4,.85E-5,0
STARLINK-35266,2025-218P,2026-07-12T14:36:23.865120,15.05660971,.00023531,97.2852,54.0657,74.9032,285.2456,0,U,65804,999,4376,.20724128E-3,.2936E-4,0
STARLINK-35273,2025-218Q,2026-07-12T14:32:22.994016,15.05705852,.0003161,97.2899,54.0726,107.4119,252.7454,0,U,65805,999,4376,.81059E-3,.11676E-3,0
STARLINK-35047,2025-218R,2026-07-12T14:12:28.947744,15.05666175,.0002705,97.2854,54.0898,89.9587,270.1950,0,U,65806,999,4376,.2364E-3,.3358E-4,0
STARLINK-35285,2025-218S,2026-07-13T09:28:51.004992,15.05659694,.0002582,97.2846,54.8337,88.8767,271.2757,0,U,65807,999,4388,.15389E-3,.2165E-4,0
STARLINK-34580,2025-218T,2026-07-13T09:16:53.479776,15.05657599,.0002281,97.2833,54.8443,87.0659,273.0829,0,U,65808,999,4388,.14025E-3,.1968E-4,0
STARLINK-35289,2025-218U,2026-07-13T12:16:19.699104,15.05659349,.0002136,97.2843,54.9823,96.0687,264.0784,0,U,65809,999,4390,.19419E-3,.2747E-4,0
STARLINK-35268,2025-218V,2026-07-13T12:04:21.963936,15.05663907,.000199,97.2843,54.9930,86.9231,273.2224,0,U,65810,999,4390,.12271E-3,.1715E-4,0
STARLINK-35224,2025-218W,2026-07-13T12:08:21.830208,15.05652674,.0002409,97.2843,54.9893,64.1094,296.0382,0,U,65811,999,4390,.85194E-4,.1173E-4,0
STARLINK-35271,2025-218X,2026-07-13T11:52:24.043872,15.05661683,.0002099,97.2861,55.0057,86.5695,273.5773,0,U,65812,999,4390,.17823E-3,.2517E-4,0
STARLINK-35215,2025-218Y,2026-07-13T11:44:25.915776,15.05661013,.0002317,97.2867,55.0143,82.4091,277.7399,0,U,65813,999,4390,.18958E-3,.2681E-4,0
STARLINK-35157,2025-218Z,2026-07-13T11:40:25.313376,15.05688062,.000245,97.2870,55.0199,12.8778,347.2512,0,U,65814,999,4390,.66031E-3,.9493E-4,0
STARLINK-35392,2025-221A,2026-07-13T12:03:56.667744,15.34418372,.0001537,53.1585,224.1239,72.5864,287.5306,0,U,65823,999,4534,.47369E-3,.15671E-3,0
STARLINK-35281,2025-221B,2026-07-13T08:38:10.321152,15.34412244,.0001073,53.1581,224.6543,67.8991,292.2125,0,U,65824,999,4532,.49203E-3,.1629E-3,0
STARLINK-35397,2025-221C,2026-07-13T10:38:25.480608,15.34405195,.0001164,53.1569,222.3357,78.8107,281.3027,0,U,65825,999,4536,.37541E-3,.1233E-3,0
STARLINK-35381,2025-221D,2026-07-13T09:22:48.645984,15.34399985,.0001288,53.1572,222.7194,73.0567,287.0577,0,U,65826,999,4535,.57017E-3,.18937E-3,0
STARLINK-35393,2025-221E,2026-07-13T11:57:04.243392,15.34407980,.0001385,53.1574,221.9638,73.4038,286.7117,0,U,65827,999,4537,.27008E-3,.8762E-4,0
STARLINK-35396,2025-221F,2026-07-13T09:34:55.720128,15.34401182,.0001356,53.1585,222.7719,79.8036,280.3119,0,U,65828,999,4535,.42414E-3,.13981E-3,0
STARLINK-35244,2025-221G,2026-07-13T11:53:31.192224,15.31715524,.0001047,53.1567,226.2493,59.9754,300.1351,0,U,65829,999,4527,.41477E-3,.12534E-3,0
STARLINK-35368,2025-221H,2026-07-13T12:00:00.998784,15.33526603,.0001714,53.1570,224.3118,78.8870,176.8646,0,U,65830,999,585,.14094E-2,.46232E-3,0
STARLINK-35337,2025-221J,2026-07-13T11:51:02.465856,15.34407905,.000092,53.1557,221.9407,66.7499,293.3600,0,U,65831,999,4537,.46452E-3,.15354E-3,0
STARLINK-35277,2025-221K,2026-07-13T11:26:54.229056,15.34403516,.0001248,53.1583,222.5440,71.0167,289.0970,0,U,65832,999,4536,.43012E-3,.14185E-3,0
STARLINK-35345,2025-221L,2026-07-13T11:23:52.437408,15.34406676,.000124,53.1574,222.5317,71.7345,288.3793,0,U,65833,999,4536,.37078E-3,.12174E-3,0
