STARLINK-35390          
1 65796U 25218F   26194.50857161  .00002884  00000+0  20361-3 0  9992
2 65796  97.2836  54.9854 0002296  77.6648 282.4836 15.05661927 43903
STARLINK-35412          
1 65797U 25218G   26194.49195655  .00002343  00000+0  16615-3 0  9991
2 65797  97.2860  55.0089 0001998  77.5609 282.5843 15.05663298 43909
STARLINK-35414          
1 65798U 25218H   26193.59476845  .00003042  00000+0  21460-3 0  9996
2 65798  97.2841  54.0829 0003097  87.1852 272.9730 15.05657267 43760
STARLINK-35357          
1 65799U 25218J   26193.99905288  .00004145  00000+0  29084-3 0  9994
2 65799  97.2864  54.4551 0002092  80.3422 279.8042 15.05674563 43821
STARLINK-35300          
1 65800U 25218K   26194.54733325  .00003196  00000+0  22523-3 0  9996
2 65800  97.2854  54.9320 0002767  87.9635 272.1909 15.05662946 43909
STARLINK-35296          
1 65801U 25218L   26194.49749314  .00001040  00000+0  75956-4 0  9991
2 65801  97.2856  55.0010 0002030  87.6324 272.5136 15.05666094 43909
STARLINK-34919          
1 65802U 25218M   26194.51411855  .00002911  00000+0  20555-3 0  9993
2 65802  97.2849  54.9795 0002556  78.7418 281.4097 15.05658021 43904
STARLINK-35286          
1 65803U 25218N   26194.54456167  .00000850  00000+0  62757-4 0  9993
2 65803  97.2851  54.9378 0003637  93.5723 266.5921 15.05667333 43906
STARLINK-35266          
1 65804U 25218P   26193.60860955  .00002936  00000+0  20724-3 0  9998
2 65804  97.2852  54.0657 0002353  74.9032 285.2456 15.05660971 43765
STARLINK-35273          
1 65805U 25218Q   26193.60582169  .00011676  00000+0  81059-3 0  9996
2 65805  97.2899  54.0726 0003161 107.4119 252.7454 15.05705852 43765
STARLINK-35047          
1 65806U 25218R   26193.59200171  .00003358  00000+0  23640-3 0  9995
2 65806  97.2854  54.0898 0002705  89.9587 270.1950 15.05666175 43762
STARLINK-35285          
1 65807U 25218S   26194.39503478  .00002165  00000+0  15389-3 0  9997
2 65807  97.2846  54.8337 0002582  88.8767 271.2757 15.05659694 43889
STARLINK-34580          
1 65808U 25218T   26194.38673009  .00001968  00000+0  14025-3 0  9991
2 65808  97.2833  54.8443 0002281  87.0659 273.0829 15.05657599 43883
STARLINK-35289          
1 65809U 25218U   26194.51133911  .00002747  00000+0  19419-3 0  9998
2 65809  97.2843  54.9823 0002136  96.0687 264.0784 15.05659349 43906
STARLINK-35268          
1 65810U 25218V   26194.50303199  .00001715  00000+0  12271-3 0  9999
2 65810  97.2843  54.9930 0001990  86.9231 273.2224 15.05663907 43903
STARLINK-35224          
1 65811U 25218W   26194.50580822  .00001173  00000+0  85194-4 0  9993
2 65811  97.2843  54.9893 0002409  64.1094 296.0382 15.05652674 43900
STARLINK-35271          
1 65812U 25218X   26194.49472273  .00002517  00000+0  17823-3 0  9998
2 65812  97.2861  55.0057 0002099  86.5695 273.5773 15.05661683 43909
STARLINK-35215          
1 65813U 25218Y   26194.48918884  .00002681  00000+0  18958-3 0  9993
2 65813  97.2867  55.0143 0002317  82.4091 277.7399 15.05661013 43907
STARLINK-35157          
1 65814U 25218Z   26194.48640409  .00009493  00000+0  66031-3 0  9992
2 65814  97.2870  55.0199 0002450  12.8778 347.2512 15.05688062 43903
STARLINK-35392          
1 65823U 25221A   26194.50273921  .00015671  00000+0  47369-3 0  9998
2 65823  53.1585 224.1239 0001537  72.5864 287.5306 15.34418372 45349
STARLINK-35281          
1 65824U 25221B   26194.35984168  .00016290  00000+0  49203-3 0  9991
2 65824  53.1581 224.6543 0001073  67.8991 292.2125 15.34412244 45324
STARLINK-35397          
1 65825U 25221C   26194.44335047  .00012330  00000+0  37541-3 0  9991
2 65825  53.1569 222.3357 0001164  78.8107 281.3027 15.34405195 45362
STARLINK-35381          
1 65826U 25221D   26194.39084081  .00018937  00000+0  57017-3 0  9994
2 65826  53.1572 222.7194 0001288  73.0567 287.0577 15.34399985 45355
STARLINK-35393          
1 65827U 25221E   26194.49796578  .00008762  00000+0  27008-3 0  9999
2 65827  53.1574 221.9638 0001385  73.4038 286.7117 15.34407980 45370
STARLINK-35396          
1 65828U 25221F   26194.39925602  .00013981  00000+0  42414-3 0  9998
2 65828  53.1585 222.7719 0001356  79.8036 280.3119 15.34401182 45356
STARLINK-35244          
1 65829U 25221G   26194.49549991  .00012534  00000+0  41477-3 0  9994
2 65829  53.1567 226.2493 0001047  59.9754 300.1351 15.31715524 45273
STARLINK-35368          
1 65830U 25221H   26194.50001156  .00046232  00000+0  14094-2 0  9990
2 65830  53.1570 224.3118 0001714  78.8870 176.8646 15.33526603  5857
STARLINK-35337          
1 65831U 25221J   26194.49377854  .00015354  00000+0  46452-3 0  9995
2 65831  53.1557 221.9407 0000920  66.7499 293.3600 15.34407905 45378
STARLINK-35277          
1 65832U 25221K   26194.47701654  .00014185  00000+0  43012-3 0  9993
2 65832  53.1583 222.5440 0001248  71.0167 289.0970 15.34403516 45362
STARLINK-35345          
1 65833U 25221L   26194.47491247  .00012174  00000+0  37078-3 0  9999
2 65833  53.1574 222.5317 0001240  71.7345 288.3793 15.34406676 45368
